start=new Date('2021-10-30T00:00:00.000Z').valueOf();
sats=[{"APOAPSIS":"548.408","INCLINATION":"53.0521","OBJECT_NAME":"STARLINK-2467","ECCENTRICITY":"0.00018030","MEAN_ELEMENT_THEORY":"SGP4","FILE":"3191844","TIME_SYSTEM":"UTC","MEAN_MOTION_DDOT":"0.0000000000000","OBJECT_TYPE":"PAYLOAD","GP_ID":"188467388","PERIAPSIS":"545.910","MEAN_MOTION":"15.06417804","MEAN_ANOMALY":"273.0833","LAUNCH_DATE":"2021-04-07","OBJECT_ID":"2021-027AL","RA_OF_ASC_NODE":"98.0854","CLASSIFICATION_TYPE":"U","EPOCH":"2021-10-29T18:09:23.765184","REV_AT_EPOCH":"3276","SEMIMAJOR_AXIS":"6925.294","ELEMENT_SET_NO":"999","TLE_LINE1":"1 48126U 21027AL  21302.75652506  .00001908  00000-0  14688-3 0  9995","COUNTRY_CODE":"US","MEAN_MOTION_DOT":"0.00001908","ARG_OF_PERICENTER":"87.0362","TLE_LINE2":"2 48126  53.0521  98.0854 0001803  87.0362 273.0833 15.06417804 32761","SITE":"AFETR","EPHEMERIS_TYPE":"0","RCS_SIZE":"LARGE","NORAD_CAT_ID":"48126","CENTER_NAME":"EARTH","REF_FRAME":"TEME","DECAY_DATE":null,"PERIOD":"95.591","BSTAR":"0.00014688000000"},{"REF_FRAME":"TEME","NORAD_CAT_ID":"48127","CENTER_NAME":"EARTH","RCS_SIZE":"LARGE","BSTAR":"0.00015886000000","PERIOD":"95.592","DECAY_DATE":null,"CLASSIFICATION_TYPE":"U","EPOCH":"2021-10-29T19:31:38.974656","REV_AT_EPOCH":"3248","SEMIMAJOR_AXIS":"6925.319","ELEMENT_SET_NO":"999","RA_OF_ASC_NODE":"117.8212","SITE":"AFETR","EPHEMERIS_TYPE":"0","TLE_LINE2":"2 48127  53.0553 117.8212 0001640  77.9381 282.1792 15.06409569 32486","MEAN_MOTION_DOT":"0.00002086","ARG_OF_PERICENTER":"77.9381","COUNTRY_CODE":"US","TLE_LINE1":"1 48127U 21027AM  21302.81364554  .00002086  00000-0  15886-3 0  9995","MEAN_ANOMALY":"282.1792","LAUNCH_DATE":"2021-04-07","OBJECT_ID":"2021-027AM","MEAN_MOTION":"15.06409569","OBJECT_TYPE":"PAYLOAD","PERIAPSIS":"546.048","GP_ID":"188468134","ECCENTRICITY":"0.00016400","OBJECT_NAME":"STARLINK-2468","INCLINATION":"53.0553","APOAPSIS":"548.320","MEAN_MOTION_DDOT":"0.0000000000000","TIME_SYSTEM":"UTC","FILE":"3191844","MEAN_ELEMENT_THEORY":"SGP4"},{"INCLINATION":"53.0504","APOAPSIS":"533.723","OBJECT_NAME":"STARLINK-2469","ECCENTRICITY":"0.00031650","FILE":"3191844","MEAN_ELEMENT_THEORY":"SGP4","MEAN_MOTION_DDOT":"0.0000000000000","TIME_SYSTEM":"UTC","MEAN_MOTION":"15.11529805","OBJECT_TYPE":"PAYLOAD","PERIAPSIS":"529.349","GP_ID":"188468889","OBJECT_ID":"2021-027AN","LAUNCH_DATE":"2021-04-07","MEAN_ANOMALY":"254.1699","RA_OF_ASC_NODE":"47.9506","EPOCH":"2021-10-29T18:55:23.907360","CLASSIFICATION_TYPE":"U","REV_AT_EPOCH":"3345","SEMIMAJOR_AXIS":"6909.671","ELEMENT_SET_NO":"999","ARG_OF_PERICENTER":"105.9641","MEAN_MOTION_DOT":"-0.00253604","TLE_LINE1":"1 48128U 21027AN  21302.78847115 -.00253604  00000-0 -15303-1 0  9999","COUNTRY_CODE":"US","EPHEMERIS_TYPE":"0","SITE":"AFETR","TLE_LINE2":"2 48128  53.0504  47.9506 0003165 105.9641 254.1699 15.11529805 33452","NORAD_CAT_ID":"48128","CENTER_NAME":"EARTH","RCS_SIZE":"LARGE","REF_FRAME":"TEME","PERIOD":"95.268","DECAY_DATE":null,"BSTAR":"-0.01530300000000"},{"TLE_LINE2":"2 48129  53.0554 117.5550 0002057  85.4006 274.7218 15.06404604 32498","EPHEMERIS_TYPE":"0","SITE":"AFETR","COUNTRY_CODE":"US","TLE_LINE1":"1 48129U 21027AP  21302.87262421  .00002181  00000-0  16523-3 0  9998","ARG_OF_PERICENTER":"85.4006","MEAN_MOTION_DOT":"0.00002181","CLASSIFICATION_TYPE":"U","EPOCH":"2021-10-29T20:56:34.731744","SEMIMAJOR_AXIS":"6925.334","REV_AT_EPOCH":"3249","ELEMENT_SET_NO":"999","RA_OF_ASC_NODE":"117.5550","BSTAR":"0.00016523000000","DECAY_DATE":null,"PERIOD":"95.592","REF_FRAME":"TEME","RCS_SIZE":"LARGE","NORAD_CAT_ID":"48129","CENTER_NAME":"EARTH","TIME_SYSTEM":"UTC","MEAN_MOTION_DDOT":"0.0000000000000","FILE":"3191844","MEAN_ELEMENT_THEORY":"SGP4","OBJECT_NAME":"STARLINK-2471","ECCENTRICITY":"0.00020570","APOAPSIS":"548.624","INCLINATION":"53.0554","MEAN_ANOMALY":"274.7218","LAUNCH_DATE":"2021-04-07","OBJECT_ID":"2021-027AP","OBJECT_TYPE":"PAYLOAD","PERIAPSIS":"545.775","GP_ID":"188469134","MEAN_MOTION":"15.06404604"},{"SEMIMAJOR_AXIS":"6925.348","REV_AT_EPOCH":"3242","ELEMENT_SET_NO":"999","EPOCH":"2021-10-29T20:41:17.327040","CLASSIFICATION_TYPE":"U","RA_OF_ASC_NODE":"122.6124","EPHEMERIS_TYPE":"0","SITE":"AFETR","TLE_LINE2":"2 48130  53.0557 122.6124 0001461  87.1926 272.9230 15.06400021 32421","MEAN_MOTION_DOT":"-0.00000306","ARG_OF_PERICENTER":"87.1926","TLE_LINE1":"1 48130U 21027AQ  21302.86200610 -.00000306  00000-0 -16143-5 0  9990","COUNTRY_CODE":"US","REF_FRAME":"TEME","CENTER_NAME":"EARTH","NORAD_CAT_ID":"48130","RCS_SIZE":"LARGE","BSTAR":"-0.00000161430000","PERIOD":"95.592","DECAY_DATE":null,"OBJECT_NAME":"STARLINK-2472","ECCENTRICITY":"0.00014610","INCLINATION":"53.0557","APOAPSIS":"548.225","MEAN_MOTION_DDOT":"0.0000000000000","TIME_SYSTEM":"UTC","MEAN_ELEMENT_THEORY":"SGP4","FILE":"3191844","MEAN_ANOMALY":"272.9230","LAUNCH_DATE":"2021-04-07","OBJECT_ID":"2021-027AQ","MEAN_MOTION":"15.06400021","PERIAPSIS":"546.202","GP_ID":"188467888","OBJECT_TYPE":"PAYLOAD"},{"RA_OF_ASC_NODE":"98.7235","SEMIMAJOR_AXIS":"6925.348","ELEMENT_SET_NO":"999","REV_AT_EPOCH":"3273","CLASSIFICATION_TYPE":"U","EPOCH":"2021-10-29T14:47:41.823456","ARG_OF_PERICENTER":"82.5877","MEAN_MOTION_DOT":"-0.00000153","COUNTRY_CODE":"US","TLE_LINE1":"1 48131U 21027AR  21302.61645629 -.00000153  00000-0  86128-5 0  9996","SITE":"AFETR","EPHEMERIS_TYPE":"0","TLE_LINE2":"2 48131  53.0552  98.7235 0001402  82.5877 277.5271 15.06400161 32737","CENTER_NAME":"EARTH","NORAD_CAT_ID":"48131","RCS_SIZE":"LARGE","REF_FRAME":"TEME","PERIOD":"95.592","DECAY_DATE":null,"BSTAR":"0.00000861280000","INCLINATION":"53.0552","APOAPSIS":"548.184","OBJECT_NAME":"STARLINK-2473","ECCENTRICITY":"0.00014020","MEAN_ELEMENT_THEORY":"SGP4","FILE":"3191844","MEAN_MOTION_DDOT":"0.0000000000000","TIME_SYSTEM":"UTC","MEAN_MOTION":"15.06400161","GP_ID":"188467635","PERIAPSIS":"546.242","OBJECT_TYPE":"PAYLOAD","LAUNCH_DATE":"2021-04-07","OBJECT_ID":"2021-027AR","MEAN_ANOMALY":"277.5271"},{"TLE_LINE1":"1 48132U 21027AS  21302.86157272 -.00001013  00000-0 -49100-4 0  9991","COUNTRY_CODE":"US","ARG_OF_PERICENTER":"85.6915","MEAN_MOTION_DOT":"-0.00001013","TLE_LINE2":"2 48132  53.0556 117.6089 0001723  85.6915 274.4271 15.06403165 32488","EPHEMERIS_TYPE":"0","SITE":"AFETR","RA_OF_ASC_NODE":"117.6089","CLASSIFICATION_TYPE":"U","EPOCH":"2021-10-29T20:40:39.883008","SEMIMAJOR_AXIS":"6925.339","REV_AT_EPOCH":"3248","ELEMENT_SET_NO":"999","DECAY_DATE":null,"PERIOD":"95.592","BSTAR":"-0.00004910000000","RCS_SIZE":"LARGE","NORAD_CAT_ID":"48132","CENTER_NAME":"EARTH","REF_FRAME":"TEME","MEAN_ELEMENT_THEORY":"SGP4","FILE":"3191844","TIME_SYSTEM":"UTC","MEAN_MOTION_DDOT":"0.0000000000000","APOAPSIS":"548.397","INCLINATION":"53.0556","ECCENTRICITY":"0.00017230","OBJECT_NAME":"STARLINK-2474","OBJECT_TYPE":"PAYLOAD","PERIAPSIS":"546.011","GP_ID":"188468390","MEAN_MOTION":"15.06403165","OBJECT_ID":"2021-027AS","LAUNCH_DATE":"2021-04-07","MEAN_ANOMALY":"274.4271"},{"TLE_LINE2":"2 48133  53.0548 117.6255 0001735  85.8296 274.2891 15.06399366 32496","SITE":"AFETR","EPHEMERIS_TYPE":"0","COUNTRY_CODE":"US","TLE_LINE1":"1 48133U 21027AT  21302.85788560  .00000388  00000-0  44947-4 0  9997","ARG_OF_PERICENTER":"85.8296","MEAN_MOTION_DOT":"0.00000388","REV_AT_EPOCH":"3249","SEMIMAJOR_AXIS":"6925.351","ELEMENT_SET_NO":"999","CLASSIFICATION_TYPE":"U","EPOCH":"2021-10-29T20:35:21.315840","RA_OF_ASC_NODE":"117.6255","BSTAR":"0.00004494700000","DECAY_DATE":null,"PERIOD":"95.592","REF_FRAME":"TEME","RCS_SIZE":"LARGE","CENTER_NAME":"EARTH","NORAD_CAT_ID":"48133","TIME_SYSTEM":"UTC","MEAN_MOTION_DDOT":"0.0000000000000","MEAN_ELEMENT_THEORY":"SGP4","FILE":"3191844","ECCENTRICITY":"0.00017350","OBJECT_NAME":"STARLINK-2475","APOAPSIS":"548.417","INCLINATION":"53.0548","LAUNCH_DATE":"2021-04-07","OBJECT_ID":"2021-027AT","MEAN_ANOMALY":"274.2891","GP_ID":"188468635","PERIAPSIS":"546.014","OBJECT_TYPE":"PAYLOAD","MEAN_MOTION":"15.06399366"},{"RCS_SIZE":"LARGE","NORAD_CAT_ID":"48134","CENTER_NAME":"EARTH","REF_FRAME":"TEME","DECAY_DATE":null,"PERIOD":"95.592","BSTAR":"-0.00000456740000","RA_OF_ASC_NODE":"117.6895","CLASSIFICATION_TYPE":"U","EPOCH":"2021-10-29T20:14:07.110240","REV_AT_EPOCH":"3248","SEMIMAJOR_AXIS":"6925.352","ELEMENT_SET_NO":"999","TLE_LINE1":"1 48134U 21027AU  21302.84313785 -.00000350  00000-0 -45674-5 0  9990","COUNTRY_CODE":"US","ARG_OF_PERICENTER":"84.8416","MEAN_MOTION_DOT":"-0.00000350","TLE_LINE2":"2 48134  53.0553 117.6895 0001815  84.8416 275.2781 15.06398915 32482","EPHEMERIS_TYPE":"0","SITE":"AFETR","OBJECT_TYPE":"PAYLOAD","GP_ID":"188467389","PERIAPSIS":"545.960","MEAN_MOTION":"15.06398915","LAUNCH_DATE":"2021-04-07","MEAN_ANOMALY":"275.2781","OBJECT_ID":"2021-027AU","APOAPSIS":"548.474","INCLINATION":"53.0553","OBJECT_NAME":"STARLINK-2476","ECCENTRICITY":"0.00018150","FILE":"3191844","MEAN_ELEMENT_THEORY":"SGP4","TIME_SYSTEM":"UTC","MEAN_MOTION_DDOT":"0.0000000000000"},{"OBJECT_ID":"2021-027AV","LAUNCH_DATE":"2021-04-07","MEAN_ANOMALY":"286.1874","PERIAPSIS":"545.903","GP_ID":"188468135","OBJECT_TYPE":"PAYLOAD","MEAN_MOTION":"15.06400917","TIME_SYSTEM":"UTC","MEAN_MOTION_DDOT":"0.0000000000000","FILE":"3191844","MEAN_ELEMENT_THEORY":"SGP4","ECCENTRICITY":"0.00018880","OBJECT_NAME":"STARLINK-2478","APOAPSIS":"548.518","INCLINATION":"53.0548","BSTAR":"0.00009883300000","DECAY_DATE":null,"PERIOD":"95.592","REF_FRAME":"TEME","RCS_SIZE":"LARGE","CENTER_NAME":"EARTH","NORAD_CAT_ID":"48135","TLE_LINE2":"2 48135  53.0548 123.3504 0001888  73.9322 286.1874 15.06400917 32393","SITE":"AFETR","EPHEMERIS_TYPE":"0","COUNTRY_CODE":"US","TLE_LINE1":"1 48135U 21027AV  21302.69613847  .00001191  00000-0  98833-4 0  9992","ARG_OF_PERICENTER":"73.9322","MEAN_MOTION_DOT":"0.00001191","SEMIMAJOR_AXIS":"6925.346","ELEMENT_SET_NO":"999","REV_AT_EPOCH":"3239","EPOCH":"2021-10-29T16:42:26.363808","CLASSIFICATION_TYPE":"U","RA_OF_ASC_NODE":"123.3504"}];
